{
  "type": "FeatureCollection",
  "features": [
    {
      "type": "Feature",
      "properties": {
        "id": "field-1",
        "name": "Поле №1 - Пшениця",
        "area": 610.6,
        "crop": "Пшениця"
      },
      "geometry": {
        "type": "Polygon",
        "coordinates": [
          [
            [30.8291157, 50.4393106],
            [30.8298343, 50.4546383],
            [30.8891118, 50.4532659],
            [30.8711489, 50.4383953],
            [30.8291157, 50.4393106]
          ]
        ]
      }
    },
    {
      "type": "Feature",
      "properties": {
        "id": "field-2",
        "name": "Поле №2 - Соняшник",
        "area": 244.7,
        "crop": "Соняшник"
      },
      "geometry": {
        "type": "Polygon",
        "coordinates": [
          [
            [30.8479768, 50.4200867],
            [30.8677359, 50.4351918],
            [30.8679156, 50.432217],
            [30.8799507, 50.4248934],
            [30.8661193, 50.4142493],
            [30.8636045, 50.415394],
            [30.8479768, 50.4200867]
          ]
        ]
      }
    },
    {
      "type": "Feature",
      "properties": {
        "id": "field-3",
        "name": "Поле №3 - Кукурудза",
        "area": 333.3,
        "crop": "Кукурудза"
      },
      "geometry": {
        "type": "Polygon",
        "coordinates": [
          [
            [30.9097691, 50.4345053],
            [30.930606, 50.4288986],
            [30.9115654, 50.4142493],
            [30.8971951, 50.4150506],
            [30.8919858, 50.4184843],
            [30.9097691, 50.4345053]
          ]
        ]
      }
    },
    {
      "type": "Feature",
      "properties": { "id": "field-4", "name": "Поле №4 - Ріпак", "area": 257.8, "crop": "Ріпак" },
      "geometry": {
        "type": "Polygon",
        "coordinates": [
          [
            [30.9297079, 50.4177976],
            [30.9313245, 50.4253511],
            [30.9329412, 50.4269533],
            [30.9438986, 50.4246645],
            [30.9733577, 50.4220323],
            [30.9728188, 50.415165],
            [30.9297079, 50.4177976]
          ]
        ]
      }
    },
    {
      "type": "Feature",
      "properties": {
        "id": "field-5",
        "name": "Поле №5 - Ячмінь",
        "area": 123.8,
        "crop": "Ячмінь"
      },
      "geometry": {
        "type": "Polygon",
        "coordinates": [
          [
            [30.8583952, 50.4624147],
            [30.8592934, 50.4679031],
            [30.8801303, 50.4674458],
            [30.8806692, 50.465845],
            [30.8867766, 50.4656164],
            [30.886597, 50.4612712],
            [30.8718674, 50.4613855],
            [30.8583952, 50.4624147]
          ]
        ]
      }
    }
  ]
}
